FORMOSAT 7-3            
1 44343U 19036E   26068.82630502  .00006445  00000+0  37650-3 0  9997
2 44343  23.9981 141.9797 0001061 150.4425 209.6139 15.08933962368215
STARLINK-1451           
1 45668U 20035M   26068.41602570  .00032913  00000+0  20090-2 0  9996
2 45668  53.0538  67.2968 0001729  37.5648 322.5463 15.10044289318703
